{
  "norad_id": 68401,
  "name": "STARLINK-37175",
  "history": [
    {
      "epoch": "2026-04-02T18:00:01.999296Z",
      "apogee_km": 273.2604277456803,
      "perigee_km": 271.125671799703,
      "latitude_deg": -11.787704459104823,
      "longitude_deg": -49.061679657143664,
      "height_km": 278.2184649685826,
      "semi_major_axis_km": 6650.330049772691,
      "eccentricity": 0.0001605,
      "inclination_deg": 97.2812,
      "raan_deg": 233.5601,
      "arg_perigee_deg": 70.4024,
      "mean_anomaly_deg": 121.2648,
      "mean_motion_rev_day": 16.0080327
    }
  ]
}